ORBCOMM FM115           
1 41186U 15081H   25036.86651705  .00001907  00000+0  41057-3 0  9995
2 41186  46.9986 303.9379 0000599 195.9865 164.1003 14.62051028488558
ORBCOMM FM108           
1 41187U 15081J   25037.35109179  .00002416  00000+0  56016-3 0  9991
2 41187  47.0055   4.6903 0002283  49.4767 310.6317 14.57745104487703
ORBCOMM FM117           
1 41188U 15081K   25037.31746423  .00002385  00000+0  55354-3 0  9996
2 41188  47.0018   3.6564 0002490  62.2971 297.8167 14.57752776487741
ORBCOMM FM116           
1 41189U 15081L   25037.58196379  .00002170  00000+0  50709-3 0  9996
2 41189  47.0012  92.2613 0001653 211.3611 148.7176 14.57728887486595
